<?xml version="1.0" encoding="UTF-8"?>
<kml xmlns="http://www.opengis.net/kml/2.2" xmlns:gx="http://www.google.com/kml/ext/2.2">
<Document><name>Bell park</name><open>1</open>
<Style id="s-f1"><LineStyle><color>ffCCBBAA</color><width>4</width></LineStyle><PolyStyle><color>55CCBBAA</color></PolyStyle></Style>
<Style id="s-f4"><IconStyle><color>ffB26F1F</color><scale>1.1</scale><Icon><href>https://maps.google.com/mapfiles/kml/shapes/placemark_circle.png</href></Icon></IconStyle></Style>
<Folder><name>Trails</name><open>1</open>
<Placemark><name>Tab	and bell</name><description>nul here
Length: 1.23 km</description><styleUrl>#s-f1</styleUrl><LineString><tessellate>1</tessellate><altitudeMode>clampToGround</altitudeMode><coordinates>151.2152967,-33.8567844,0 151.2200000,-33.8500000,0</coordinates></LineString></Placemark>
</Folder>
<Folder><name>Points of interest</name>
<Placemark><name>Tap &amp; &quot;fountain&quot;</name><styleUrl>#s-f4</styleUrl><ExtendedData><Data name="type"><value>Water</value></Data></ExtendedData><Point><coordinates>0.0000000,-0.0000001,0</coordinates></Point></Placemark>
</Folder>
</Document>
</kml>
